{
  "norad_id": 65649,
  "name": "STARLINK-35079",
  "history": [
    {
      "epoch": "2026-03-28T17:26:06.169056Z",
      "apogee_km": 476.0317433287455,
      "perigee_km": 474.2564693909535,
      "latitude_deg": 1.5496857588223097e-05,
      "longitude_deg": 131.12523935234003,
      "height_km": 475.88700751045894,
      "semi_major_axis_km": 6853.281106359849,
      "eccentricity": 0.00012952,
      "inclination_deg": 53.1584,
      "raan_deg": 218.7937,
      "arg_perigee_deg": 79.9431,
      "mean_anomaly_deg": 280.1716,
      "mean_motion_rev_day": 15.30223767
    }
  ]
}